1 41860U 16069B   20283.67980783  .00000032  00000-0  00000-0 0  9999
2 41860  54.6648 158.6697 0002906 353.0759   7.0131  1.70472912 24253
1 41860U 16069B   20285.43956689  .00000034  00000-0  00000-0 0  9995
2 41860  54.6653 158.6208 0002880 354.1939   5.8972  1.70472949 24282
1 41860U 16069B   20286.02615893  .00000036  00000-0  00000+0 0  9991
2 41860  54.6656 158.6045 0002871 354.5236   5.5695  1.70472865 24295
1 41860U 16069B   20286.02615893  .00000036  00000-0  00000-0 0  9992
2 41860  54.6656 158.6045 0002871 354.5236   5.5695  1.70472865 24295
1 41860U 16069B   20288.37252346  .00000047  00000-0  00000+0 0  9993
2 41860  54.6661 158.5393 0002845 355.6197   4.4857  1.70472840 24331
1 41860U 16069B   20288.95911431  .00000049  00000-0  00000-0 0  9997
2 41860  54.6652 158.5230 0002826 356.2960   3.8127  1.70472848 24347
1 41860U 16069B   20290.71887892  .00000051  00000-0  00000+0 0  9999
2 41860  54.6654 158.4741 0002802 357.3605   2.7529  1.70472880 24370
1 41860U 16069B   20291.89204824  .00000046  00000-0  00000-0 0  9992
2 41860  54.6657 158.4414 0002783 358.1318   1.9798  1.70472880 24399
1 41860U 16069B   20293.06521157  .00000038  00000-0  00000-0 0  9995
2 41860  54.6654 158.4088 0002761 359.0165   1.0898  1.70472890 24415
1 41860U 16069B   20293.65179038  .00000033  00000-0  00000-0 0  9992
2 41860  54.6655 158.3925 0002749 359.4365   0.6664  1.70472940 24420
1 41860U 16069B   20294.82495102  .00000024  00000-0  00000-0 0  9995
2 41860  54.6658 158.3599 0002737   0.0330   0.0626  1.70472938 24449
1 41860U 16069B   20295.99811300  .00000019  00000-0  00000+0 0  9999
2 41860  54.6657 158.3272 0002716   0.6985 359.3916  1.70472979 24464
1 41860U 16069B   20297.75786620  .00000021  00000-0  00000-0 0  9995
2 41860  54.6661 158.2783 0002695   1.5330 358.5547  1.70473039 24497
1 41860U 16069B   20298.34445440  .00000024  00000-0  00000+0 0  9995
2 41860  54.6663 158.2620 0002686   1.7756 358.3131  1.70473033 24506
1 41860U 16069B   20298.93104274  .00000028  00000-0  00000-0 0  9992
2 41860  54.6664 158.2457 0002680   2.0718 358.0188  1.70473059 24519
1 41860U 16069B   20300.69081197  .00000042  00000-0  00000+0 0  9992
2 41860  54.6667 158.1968 0002661   3.0765 357.0224  1.70473140 24544
1 41860U 16069B   20305.38351751  .00000069  00000-0  00000+0 0  9998
2 41860  54.6676 158.0665 0002611   5.6370 354.4747  1.70473159 24622
1 41860U 16069B   20305.97010040  .00000071  00000-0  00000-0 0  9990
2 41860  54.6677 158.0503 0002606   5.9204 354.1902  1.70473178 24639
1 41860U 16069B   20307.14326430  .00000074  00000-0  00000-0 0  9997
2 41860  54.6680 158.0177 0002599   6.4793 353.6273  1.70473184 24654
1 41860U 16069B   20307.72984591  .00000074  00000-0  00000-0 0  9999
2 41860  54.6682 158.0014 0002603   6.7848 353.3192  1.70473165 24663
1 41860U 16069B   20308.31642737  .00000075  00000-0  00000-0 0  9999
2 41860  54.6680 157.9851 0002604   7.1795 352.9217  1.70473138 24679
1 41860U 16069B   20308.90300773  .00000075  00000-0  00000-0 0  9995
2 41860  54.6681 157.9688 0002601   7.3960 352.7022  1.70473131 24687
1 41860U 16069B   20315.35543799  .00000088  00000+0  00000+0 0  9991
2 41860  54.6705 157.7897 0002548   9.9155 350.1775  1.70473055 24792
1 41860U 16069B   20316.52861242  .00000092  00000+0  00000+0 0  9992
2 41860  54.6712 157.7571 0002549   9.6967 350.3991  1.70473066 24815
1 41860U 16069B   20318.28836614  .00000092  00000-0  00000-0 0  9994
2 41860  54.6713 157.7081 0002533  10.1260 349.9688  1.70473085 24849
1 41860U 16069B   20320.04810629  .00000081  00000-0  00000-0 0  9997
2 41860  54.6716 157.6591 0002508  10.9486 349.1364  1.70473095 24874
1 41860U 16069B   20321.22126103  .00000070  00000-0  00000+0 0  9992
2 41860  54.6719 157.6265 0002496  11.1276 348.9475  1.70473100 24890
1 41860U 16069B   20323.56757256  .00000055  00000-0  00000+0 0  9993
2 41860  54.6730 157.5613 0002460  11.9099 348.1476  1.70473158 24932
1 41860U 16069B   20323.56757256  .00000055  00000-0  00000-0 0  9994
2 41860  54.6730 157.5613 0002460  11.9099 348.1476  1.70473158 24932
1 41860U 16069B   20325.32731941  .00000057  00000-0  00000-0 0  9995
2 41860  54.6735 157.5124 0002442  12.0888 347.9635  1.70473210 24968
1 41860U 16069B   20327.08707813  .00000067  00000-0  00000+0 0  9991
2 41860  54.6741 157.4635 0002416  12.4933 347.5613  1.70473287 24996
1 41860U 16069B   20327.67366584  .00000072  00000-0  00000-0 0  9999
2 41860  54.6743 157.4473 0002417  12.6523 347.4041  1.70473293 25000
1 41860U 16069B   20328.84684248  .00000080  00000-0  00000-0 0  9998
2 41860  54.6746 157.4147 0002400  13.1038 346.9562  1.70473310 25024
1 41860U 16069B   20330.02001547  .00000086  00000-0  00000+0 0  9991
2 41860  54.6750 157.3822 0002390  13.4585 346.6042  1.70473352 25044
1 41860U 16069B   20330.60660156  .00000089  00000-0  00000-0 0  9996
2 41860  54.6751 157.3659 0002385  13.5169 346.5465  1.70473347 25059
1 41860U 16069B   20334.71267372  .00000096  00000-0  00000+0 0  9992
2 41860  54.6763 157.2520 0002356  13.6331 346.4173  1.70473342 25126
1 41860U 16069B   20334.71267372  .00000096  00000-0  00000-0 0  9993
2 41860  54.6763 157.2520 0002356  13.6331 346.4173  1.70473342 25126
1 41860U 16069B   20337.64556744  .00000093  00000-0  00000+0 0  9998
2 41860  54.6770 157.1706 0002336  14.1448 345.8871  1.70473303 25172
1 41860U 16069B   20337.64556744  .00000093  00000-0  00000-0 0  9999
2 41860  54.6770 157.1706 0002336  14.1448 345.8871  1.70473303 25172
1 41860U 16069B   20339.99189492  .00000093  00000-0  00000+0 0  9990
2 41860  54.6777 157.1054 0002301  14.4053 345.6193  1.70473248 25210
1 41860U 16069B   20340.57847928  .00000093  00000-0  00000-0 0  9992
2 41860  54.6779 157.0891 0002319  14.3762 345.6483  1.70473252 25223
1 41860U 16069B   20342.92482401  .00000100  00000-0  00000+0 0  9992
2 41860  54.6786 157.0240 0002289  14.0560 345.9723  1.70473242 25261
1 41860U 16069B   20342.92482401  .00000100  00000-0  00000-0 0  9993
2 41860  54.6786 157.0240 0002289  14.0560 345.9723  1.70473242 25261
1 41860U 16069B   20345.27116338  .00000100  00000-0  00000+0 0  9996
2 41860  54.6791 156.9588 0002274  13.9544 346.0739  1.70473231 25306
1 41860U 16069B   20345.27116338  .00000100  00000-0  00000-0 0  9997
2 41860  54.6791 156.9588 0002274  13.9544 346.0739  1.70473231 25306
1 41860U 16069B   20347.61747896  .00000082  00000-0  00000+0 0  9994
2 41860  54.6797 156.8936 0002244  13.9540 346.0599  1.70473243 25342
1 41860U 16069B   20347.61747896  .00000082  00000-0  00000-0 0  9995
2 41860  54.6797 156.8936 0002244  13.9540 346.0599  1.70473243 25342
1 41860U 16069B   20349.37720614  .00000063  00000-0  00000-0 0  9998
2 41860  54.6801 156.8447 0002217  13.8379 346.1598  1.70473287 25375
1 41860U 16069B   20351.72351927  .00000051  00000-0  00000+0 0  9993
2 41860  54.6808 156.7795 0002174  12.9897 346.9928  1.70473378 25415
1 41860U 16069B   20351.72351927  .00000051  00000-0  00000-0 0  9994
2 41860  54.6808 156.7795 0002174  12.9897 346.9928  1.70473378 25415
1 41860U 16069B   20352.89668448  .00000052  00000-0  00000-0 0  9993
2 41860  54.6811 156.7469 0002158  12.5472 347.4335  1.70473433 25436
1 41860U 16069B   20355.82961850  .00000066  00000-0  00000+0 0  9996
2 41860  54.6818 156.6654 0002133  11.9727 348.0147  1.70473475 25486
1 41860U 16069B   20355.82961850  .00000066  00000-0  00000-0 0  9997
2 41860  54.6818 156.6654 0002133  11.9727 348.0147  1.70473475 25486
1 41860U 16069B   20357.00279090  .00000071  00000-0  00000-0 0  9993
2 41860  54.6821 156.6329 0002120  11.6921 348.2985  1.70473538 25503
1 41860U 16069B   20357.58937742  .00000073  00000-0  00000-0 0  9993
2 41860  54.6822 156.6166 0002119  11.7469 348.2447  1.70473529 25513
1 41860U 16069B   20359.34912878  .00000075  00000-0  00000-0 0  9994
2 41860  54.6824 156.5677 0002113  11.2815 348.7098  1.70473557 25546
1 41860U 16069B   20359.34913019  .00000075  00000-0  00000+0 0  9991
2 41860  54.6825 156.5677 0002105  11.1646 348.8266  1.70473517 25543
1 41860U 16069B   20359.93571157  .00000075  00000-0  00000-0 0  9990
2 41860  54.6825 156.5515 0002105  10.8995 349.0903  1.70473527 25550
1 41860U 16069B   20362.28203086  .00000073  00000-0  00000+0 0  9992
2 41860  54.6831 156.4864 0002101  10.0570 349.9223  1.70473512 25592
1 41860U 16069B   20362.28203086  .00000073  00000-0  00000-0 0  9993
2 41860  54.6831 156.4864 0002101  10.0570 349.9223  1.70473512 25592
1 41860U 16069B   20362.86860917  .00000072  00000-0  00000-0 0  9998
2 41860  54.6836 156.4702 0002094   9.5452 350.4304  1.70473501 25608
1 41860U 16069B   20364.04176613  .00000069  00000-0  00000-0 0  9999
2 41860  54.6839 156.4376 0002092   9.3004 350.6687  1.70473500 25624
1 41860U 16069B   20364.62834308  .00000068  00000-0  00000+0 0  9993
2 41860  54.6840 156.4214 0002084   9.0565 350.9096  1.70473563 25634
1 41860U 16069B   20364.62834308  .00000068  00000-0  00000-0 0  9994
2 41860  54.6840 156.4214 0002084   9.0565 350.9096  1.70473563 25634
1 41860U 16069B   20365.80150608  .00000065  00000-0  00000-0 0  9996
2 41860  54.6842 156.3888 0002095   9.1790 350.7829  1.70473493 25651
1 41860U 16069B   20366.97467427  .00000064  00000-0  00000+0 0  9993
2 41860  54.6845 156.3562 0002072   8.1907 351.7692  1.70473397 25671
1 41860U 16069B   20366.97467427  .00000064  00000-0  00000-0 0  9994
2 41860  54.6845 156.3562 0002072   8.1907 351.7692  1.70473397 25671
